[{"OBJECT_NAME":"YAOGAN-20 01A","OBJECT_ID":"2014-047A","EPOCH":"2026-03-09T23:42:48.180096","MEAN_MOTION":13.4543306,"ECCENTRICITY":0.03815274,"INCLINATION":63.3786,"RA_OF_ASC_NODE":274.8961,"ARG_OF_PERICENTER":14.1455,"MEAN_ANOMALY":346.9906,"EPHEMERIS_TYPE":0,"CLASSIFICATION_TYPE":"U","NORAD_CAT_ID":40109,"ELEMENT_SET_NO":999,"REV_AT_EPOCH":56909,"BSTAR":0.00011386118,"MEAN_MOTION_DOT":1.4e-7,"MEAN_MOTION_DDOT":0},{"OBJECT_NAME":"CZ-6A DEB","OBJECT_ID":"2024-140VY","EPOCH":"2026-03-09T22:00:07.964640","MEAN_MOTION":14.23600154,"ECCENTRICITY":0.00433269,"INCLINATION":89.0561,"RA_OF_ASC_NODE":289.2558,"ARG_OF_PERICENTER":149.3466,"MEAN_ANOMALY":211.0271,"EPHEMERIS_TYPE":0,"CLASSIFICATION_TYPE":"U","NORAD_CAT_ID":61359,"ELEMENT_SET_NO":999,"REV_AT_EPOCH":7846,"BSTAR":0.001078627,"MEAN_MOTION_DOT":2.494e-5,"MEAN_MOTION_DDOT":0}]
